satname,norad_id,inclination_deg,eccentricity,mean_motion_rev_per_day,perigee_km,apogee_km,l1,l2
STARLINK-1185,45087,53.0563,0.0001224,15.06408202,546.3387605170192,548.0340796902601,1 45087U 20006AV  25330.44151010  .00004226  00000+0  30236-3 0  9991,2 45087  53.0563 350.1176 0001224  97.8048 262.3080 15.06408202321461
STARLINK-1183,45088,53.0553,0.0001491,15.06413132,546.1387470729105,548.2038740111138,1 45088U 20006AW  25330.33093456  .00006008  00000+0  42175-3 0  9994,2 45088  53.0553 350.6147 0001491  92.3788 267.7371 15.06413132321449
STARLINK-1142,45093,53.0291,0.0008349,15.74467127,340.53385557023466,351.7620665982531,1 45093U 20006BB  25330.91673610  .00312033  00000+0  20293-2 0  9994,2 45093  53.0291 269.7216 0008349 109.8174 209.6140 15.74467127  6002
STARLINK-1152,45096,53.0459,0.0004158,15.26564745,483.2366735304731,488.9449653851343,1 45096U 20006BE  25330.27751099  .00060794  00000+0  22878-2 0  9999,2 45096  53.0459 329.6327 0004158 313.0540  47.0110 15.26564745321732
STARLINK-1184,45098,53.0556,0.0001443,15.06412019,546.1753991978112,548.174044160688,1 45098U 20006BG  25330.27933111  .00005473  00000+0  38592-3 0  9992,2 45098  53.0556 350.8471 0001443  89.7308 270.3846 15.06412019321439
STARLINK-1193,45100,53.0553,0.0001368,15.06391991,546.2887134378316,548.1834955192171,1 45100U 20006BJ  25330.87277318  .00000693  00000+0  65406-4 0  9996,2 45100  53.0553 348.1816 0001368  91.0325 269.0821 15.06391991321527
STARLINK-1143,45179,53.051,0.000572,15.44373493,429.32346530463474,437.11565721071383,1 45179U 20012B   25330.91673610  .00061633  00000+0  13122-2 0  9996,2 45179  53.0510 104.9554 0005720 141.9170  10.1270 15.44373493  5950
STARLINK-1202,45183,53.0537,0.0001376,15.06387529,546.2968467998844,548.2027132417452,1 45183U 20012F   25330.73640184  .00000335  00000+0  41396-4 0  9999,2 45183  53.0537 148.7970 0001376  92.3467 267.7680 15.06387529319320
STARLINK-1216,45185,53.0535,0.0001423,15.06394578,546.242696172716,548.2136551017029,1 45185U 20012H   25330.79536742 -.00000777  00000+0 -33247-4 0  9999,2 45185  53.0535 148.5289 0001423  91.5902 268.5249 15.06394578319275
STARLINK-1225,45187,53.0534,0.0001187,15.06395458,546.4034380228832,548.0475190752904,1 45187U 20012K   25330.74745220  .00000409  00000+0  46319-4 0  9993,2 45187  53.0534 148.7436 0001187  89.4989 270.6136 15.06395458319312
STARLINK-1230,45189,53.054,0.0001426,15.06398104,546.2298133782924,548.2049244443051,1 45189U 20012M   25330.75114014  .00001854  00000+0  14333-3 0  9992,2 45189  53.0540 148.7310 0001426  89.0441 271.0711 15.06398104316544
STARLINK-1234,45190,53.0512,0.0002795,15.40348173,443.1738429621246,446.98802178632195,1 45190U 20012N   25330.66740971  .00098678  00000+0  23869-2 0  9994,2 45190  53.0512 100.2865 0002795 262.5373  97.5313 15.40348173319894
STARLINK-1269,45197,53.0528,0.0001328,15.06393086,546.3130593309361,548.1524375361205,1 45197U 20012V   25330.76219545  .00002027  00000+0  15497-3 0  9992,2 45197  53.0528 148.6794 0001328  90.6386 269.4755 15.06393086319299
STARLINK-1154,45198,53.0534,8.75e-05,15.06393445,546.6256783853223,547.8376178987473,1 45198U 20012W   25330.75298260 -.00000057  00000+0  15085-4 0  9999,2 45198  53.0534 128.7197 0000875  57.9519 302.1555 15.06393445319543
STARLINK-1199,45201,53.0539,0.0001328,15.06397792,546.298637961353,548.138012335713,1 45201U 20012Z   25330.76403701  .00000537  00000+0  54960-4 0  9990,2 45201  53.0539 128.6704 0001328  96.3657 263.7483 15.06397792319608
STARLINK-1209,45206,53.0537,0.0002531,15.33879406,462.51918449616824,465.9828012981716,1 45206U 20012AE  25330.83152975  .00096520  00000+0  28780-2 0  9993,2 45206  53.0537 101.2723 0002531 284.8171  75.2549 15.33879406319045
STARLINK-1210,45207,53.0213,0.0005809,15.632643,374.31044884682433,382.16000209837875,1 45207U 20012AF  25330.51655414  .00136734  00000+0  14441-2 0  9996,2 45207  53.0213  59.6386 0005809 134.7699 225.3787 15.63264300320551
STARLINK-1231,45212,53.0509,0.0007129,15.13914682,519.3547310565391,529.1961907432897,1 45212U 20012AL  25330.66237043  .00028636  00000+0  15723-2 0  9997,2 45212  53.0509 126.2265 0007129 125.9719 234.1935 15.13914682319588
STARLINK-1271,45217,53.0539,0.0001358,15.06392201,546.2949952729577,548.175926433325,1 45217U 20012AR  25330.74929074 -.00000228  00000+0  36057-5 0  9997,2 45217  53.0539 128.7361 0001358  92.3843 267.7302 15.06392201319605
STARLINK-1191,45222,53.0556,0.0001824,15.06395288,545.9628133661463,548.4891857883913,1 45222U 20012AW  25330.62581818 -.00000537  00000+0 -17134-4 0  9998,2 45222  53.0556 109.2911 0001824 108.6811 251.4376 15.06395288319866
STARLINK-1212,45223,53.0544,0.0001432,15.06395085,546.2349096757116,548.2183338169789,1 45223U 20012AX  25330.64432147 -.00000620  00000+0 -22720-4 0  9991,2 45223  53.0544 109.8631 0001432  87.5425 272.5728 15.06395085319860
STARLINK-1215,45225,53.0544,0.0001319,15.06400211,546.2974578642479,548.1243646432358,1 45225U 20012AZ  25330.66634646 -.00001279  00000+0 -67003-4 0  9997,2 45225  53.0544 109.1072 0001319  87.4967 272.6173 15.06400211319827
STARLINK-1221,45227,53.0686,0.0004702,15.37804301,449.39179665341635,455.8154251238966,1 45227U 20012BB  25330.52028272  .00017003  00000+0  46033-3 0  9995,2 45227  53.0686  36.9723 0004702  49.3935 310.7477 15.37804301320811
STARLINK-1222,45228,53.0534,9.87e-05,15.0905746,538.396051363793,539.761509758875,1 45228U 20012BC  25330.91673610  .01717293  00000+0  97852-1 0  9993,2 45228  53.0534 107.9726 0000987  63.0141  42.3880 15.09057460  5854
STARLINK-1226,45229,53.0548,0.0001445,15.06394602,546.2273868229759,548.2288173374773,1 45229U 20012BD  25330.66267184 -.00000774  00000+0 -33085-4 0  9992,2 45229  53.0548 109.1233 0001445  92.6974 267.4181 15.06394602319760
STARLINK-1227,45230,53.0523,0.0001602,15.06401585,546.0972600850546,548.3161402065816,1 45230U 20012BE  25330.65898701 -.00000613  00000+0 -22262-4 0  9995,2 45230  53.0523 109.1389 0001602 119.8158 240.2990 15.06401585319887
STARLINK-1246,45235,53.0532,0.0001216,15.06395902,546.3819938346123,548.0662416584482,1 45235U 20012BK  25330.74008023 -.00000229  00000+0  34946-5 0  9995,2 45235  53.0532 148.7771 0001216  91.3953 268.7176 15.06395902319341
STARLINK-1270,45237,53.0531,0.0001216,15.06387852,546.4066631467813,548.0909169709239,1 45237U 20012BM  25330.61106809  .00001656  00000+0  13010-3 0  9995,2 45237  53.0531 109.3549 0001216  87.5353 272.5775 15.06387852319869
STARLINK-1279,45360,53.0508,0.0008618,15.38395157,444.96927214193965,456.73972188619337,1 45360U 20019A   25330.86423866  .00074002  00000+0  19152-2 0  9998,2 45360  53.0508 230.0924 0008618  98.1050 262.0930 15.38395157314756
STARLINK-1301,45361,53.0498,0.0008298,15.41190763,436.933965784825,448.2536506341294,1 45361U 20019B   25330.84843823  .00075234  00000+0  17759-2 0  9995,2 45361  53.0498 239.4121 0008298  90.8373 269.3582 15.41190763314638
STARLINK-1306,45362,53.0407,0.0005694,15.80273067,325.84837251309455,333.4872206154223,1 45362U 20019C   25330.91673610  .00196802  00000+0  10044-2 0  9994,2 45362  53.0407 222.4152 0005694  74.9036 202.7543 15.80273067  6044
STARLINK-1262,45366,53.0553,0.0001326,15.06400411,546.2919972310065,548.1285993345109,1 45366U 20019G   25330.25721013 -.00004472  00000+0 -28148-3 0  9994,2 45366  53.0553 270.9402 0001326  95.4543 264.6598 15.06400411314148
STARLINK-1273,45367,53.0538,0.0002024,15.0639803,545.8159039409529,548.6192874812969,1 45367U 20019H   25330.54472976  .00001260  00000+0  10351-3 0  9995,2 45367  53.0538 269.6519 0002024  91.9095 268.2126 15.06398030314189
STARLINK-1276,45368,53.0547,0.0001714,15.06418156,545.9689177668242,548.3429081773911,1 45368U 20019J   25330.24984511  .00009032  00000+0  62416-3 0  9990,2 45368  53.0547 270.9778 0001714  95.6529 264.4655 15.06418156314143
STARLINK-1277,45369,53.0556,0.0001865,15.06393859,545.9387982665157,548.5219602989882,1 45369U 20019K   25330.83968304  .00000329  00000+0  40989-4 0  9990,2 45369  53.0556 268.9551 0001865  96.5876 263.5325 15.06393859314227
STARLINK-1281,45370,53.0542,0.0001946,15.06391676,545.8893921228737,548.5847477108846,1 45370U 20019L   25330.83592208  .00000754  00000+0  69535-4 0  9998,2 45370  53.0542 268.3494 0001946  88.8626 271.2586 15.06391676314232
STARLINK-1300,45374,53.056,0.0002524,15.06420407,545.4010719385178,548.8969563184492,1 45374U 20019Q   25330.26090460  .00007238  00000+0  50401-3 0  9997,2 45374  53.0560 270.9263 0002524  95.2127 264.9150 15.06420407314141
STARLINK-1302,45375,53.0535,0.0002723,15.06400735,545.3235334711271,549.0950770689769,1 45375U 20019R   25330.80642448  .00001166  00000+0  97189-4 0  9996,2 45375  53.0535 268.4796 0002723  85.5349 274.5951 15.06400735314223
STARLINK-1304,45376,53.0511,0.000211,15.06404293,545.7371547733164,548.6596463123442,1 45376U 20019S   25330.82484991 -.00001149  00000+0 -58207-4 0  9997,2 45376  53.0511 268.3979 0002110  80.8524 279.2703 15.06404293314223
STARLINK-1305,45377,53.0526,0.0007356,15.35055225,455.7257761399169,465.7871562073515,1 45377U 20019T   25330.24379059  .00059585  00000+0  17231-2 0  9997,2 45377  53.0526 263.8797 0007356  86.5174 273.6669 15.35055225314249
STARLINK-1319,45379,53.0532,0.000614,15.39788388,442.5440666794011,450.925008927823,1 45379U 20019V   25330.25245052  .00070447  00000+0  17442-2 0  9999,2 45379  53.0532 265.4120 0006140  92.8575 267.3132 15.39788388314221
STARLINK-1266,45383,53.0527,0.0002772,15.06405931,545.2736787557096,549.1130819185673,1 45383U 20019Z   25330.77877802  .00000490  00000+0  51786-4 0  9997,2 45383  53.0527 248.6059 0002772  87.7236 272.4070 15.06405931314499
STARLINK-1267,45384,53.0534,0.0002299,15.06419437,545.5598630351478,548.744110911357,1 45384U 20019AA  25330.49873260  .00010024  00000+0  69055-3 0  9992,2 45384  53.0534 250.5198 0002299  84.7859 275.3392 15.06419437314446
